NORAD_CAT_ID,OBJECT_NAME,OBJECT_TYPE,EPOCH,MEAN_MOTION,ECCENTRICITY,INCLINATION,RA_OF_ASC_NODE,ARG_OF_PERICENTER,MEAN_ANOMALY,BSTAR,MEAN_MOTION_DOT,MEAN_MOTION_DDOT,TLE_LINE0,TLE_LINE1,TLE_LINE2,SEMIMAJOR_AXIS,PERIOD,APOGEE,PERIGEE,DECAYED
52353.0,STARLINK-3807,PAYLOAD,2023-03-25 04:25:45,15.08846904,0.0001196,53.2171,9.6947,107.6267,252.4856,0.00040169,6.112e-05,0.0,0 STARLINK-3807,1 52353U 22045Y   23084.18455542  .00006112  00000-0  40169-3 0  9995,2 52353  53.2171   9.6947 0001196 107.6267 252.4856 15.08846904 52666,6917.859,95.437,540.552,538.897,0.0
52353.0,STARLINK-3807,PAYLOAD,2023-03-26 01:05:46,15.08843077,0.0001247,53.2173,5.8301,112.5768,247.5356,1.8709e-05,1e-07,0.0,0 STARLINK-3807,1 52353U 22045Y   23085.04567718  .00000010  00000-0  18709-4 0  9997,2 52353  53.2173   5.8301 0001247 112.5768 247.5356 15.08843077 52790,6917.871,95.437,540.599,538.873,0.0
52353.0,STARLINK-3807,PAYLOAD,2023-03-26 21:45:47,15.08836457,0.0001285,53.2179,1.9649,121.5785,238.5333,4.799e-05,4.76e-06,0.0,0 STARLINK-3807,1 52353U 22045Y   23085.90680305  .00000476  00000-0  47990-4 0  9990,2 52353  53.2179   1.9649 0001285 121.5785 238.5333 15.08836457 52923,6917.891,95.438,540.645,538.867,0.0
52353.0,STARLINK-3807,PAYLOAD,2023-03-27 04:07:20,15.08841328,0.000127,53.2178,0.7741,115.6848,244.4276,8.7312e-05,1.102e-05,0.0,0 STARLINK-3807,1 52353U 22045Y   23086.17176161  .00001102  00000-0  87312-4 0  9999,2 52353  53.2178   0.7741 0001270 115.6848 244.4276 15.08841328 52969,6917.876,95.437,540.62,538.863,0.0
52353.0,STARLINK-3807,PAYLOAD,2023-03-27 21:36:34,15.08839936,0.000128,53.2177,357.5025,122.0582,238.0535,0.00024868,3.672e-05,0.0,0 STARLINK-3807,1 52353U 22045Y   23086.90040360  .00003672  00000-0  24868-3 0  9991,2 52353  53.2177 357.5025 0001280 122.0582 238.0535 15.08839936 53076,6917.881,95.438,540.631,538.86,0.0
52353.0,STARLINK-3807,PAYLOAD,2023-03-28 02:22:43,15.08853126,0.0001188,53.2185,356.6115,109.1034,251.0087,0.00019938,2.888e-05,0.0,0 STARLINK-3807,1 52353U 22045Y   23087.09911577  .00002888  00000-0  19938-3 0  9999,2 52353  53.2185 356.6115 0001188 109.1034 251.0087 15.08853126 53108,6917.84,95.437,540.527,538.883,0.0
52353.0,STARLINK-3807,PAYLOAD,2023-03-28 21:27:21,15.08843066,0.0001169,53.2176,353.0423,109.2748,250.8371,9.6788e-05,1.253e-05,0.0,0 STARLINK-3807,1 52353U 22045Y   23087.89400156  .00001253  00000-0  96788-4 0  9997,2 52353  53.2176 353.0423 0001169 109.2748 250.8371 15.08843066 53221,6917.871,95.437,540.545,538.927,0.0
52353.0,STARLINK-3807,PAYLOAD,2023-03-29 00:38:08,15.08848355,0.0001401,53.2191,352.4526,112.7549,247.3591,0.00016971,2.415e-05,0.0,0 STARLINK-3807,1 52353U 22045Y   23088.02648260  .00002415  00000-0  16971-3 0  9999,2 52353  53.2191 352.4526 0001401 112.7549 247.3591 15.08848355 53245,6917.855,95.437,540.689,538.751,0.0
52353.0,STARLINK-3807,PAYLOAD,2023-03-29 21:18:08,15.08841345,0.0001107,53.2182,348.5863,102.0251,258.0865,-6.4361e-05,-1.312e-05,0.0,0 STARLINK-3807,1 52353U 22045Y   23088.88760235 -.00001312  00000-0 -64361-4 0  9994,2 52353  53.2182 348.5863 0001107 102.0251 258.0865 15.08841345 53379,6917.876,95.437,540.507,538.975,0.0
52353.0,STARLINK-3807,PAYLOAD,2023-03-30 03:39:40,15.08855655,0.0001105,53.2183,347.3946,109.6002,250.511,0.00016089,2.275e-05,0.0,0 STARLINK-3807,1 52353U 22045Y   23089.15255455  .00002275  00000-0  16089-3 0  9998,2 52353  53.2183 347.3946 0001105 109.6002 250.5110 15.08855655 53418,6917.833,95.437,540.462,538.933,0.0
52353.0,STARLINK-3807,PAYLOAD,2023-03-30 10:01:13,15.0883275,9.81e-05,53.2186,346.2074,138.6176,221.4891,-0.00011879,-2.177e-05,0.0,0 STARLINK-3807,1 52353U 22045Y   23089.41752264 -.00002177  00000-0 -11879-3 0  9992,2 52353  53.2186 346.2074 0000981 138.6176 221.4891 15.08832750 53454,6917.903,95.438,540.446,539.089,0.0
52353.0,STARLINK-3807,PAYLOAD,2023-03-31 03:30:27,15.08860664,0.0001125,53.2167,342.9334,109.7399,250.3714,0.00045204,6.918e-05,0.0,0 STARLINK-3807,1 52353U 22045Y   23090.14615352  .00006918  00000-0  45204-3 0  9994,2 52353  53.2167 342.9334 0001125 109.7399 250.3714 15.08860664 53564,6917.817,95.436,540.46,538.904,0.0
52353.0,STARLINK-3807,PAYLOAD,2023-03-31 16:13:33,15.08845372,0.0001727,53.217,340.5541,94.4611,265.6579,5.0442e-05,5.15e-06,0.0,0 STARLINK-3807,1 52353U 22045Y   23090.67608203  .00000515  00000-0  50442-4 0  9997,2 52353  53.2170 340.5541 0001727  94.4611 265.6579 15.08845372 53643,6917.864,95.437,540.924,538.534,0.0
52353.0,STARLINK-3807,PAYLOAD,2023-04-01 01:45:52,15.08844416,0.0001139,53.2176,338.7708,87.1393,272.9729,0.00012578,1.715e-05,0.0,0 STARLINK-3807,1 52353U 22045Y   23091.07352262  .00001715  00000-0  12578-3 0  9993,2 52353  53.2176 338.7708 0001139  87.1393 272.9729 15.08844416 53709,6917.867,95.437,540.52,538.944,0.0
52353.0,STARLINK-3807,PAYLOAD,2023-04-01 16:04:21,15.08826226,0.0001193,53.2172,336.095,89.7426,270.3703,-2.4647e-05,-6.8e-06,0.0,0 STARLINK-3807,1 52353U 22045Y   23091.66969551 -.00000680  00000-0 -24647-4 0  9996,2 52353  53.2172 336.0950 0001193  89.7426 270.3703 15.08826226 53792,6917.922,95.438,540.613,538.962,0.0
52353.0,STARLINK-3807,PAYLOAD,2023-04-01 22:25:54,15.08828956,0.0001404,53.2169,334.9075,76.4773,283.6375,3.5183e-05,2.72e-06,0.0,0 STARLINK-3807,1 52353U 22045Y   23091.93465775  .00000272  00000-0  35183-4 0  9997,2 52353  53.2169 334.9075 0001404  76.4773 283.6375 15.08828956 53835,6917.914,95.438,540.75,538.808,0.0
52353.0,STARLINK-3807,PAYLOAD,2023-04-02 20:41:18,15.08853202,0.0001476,53.2188,330.7434,75.0481,285.0674,0.00062185,9.626e-05,0.0,0 STARLINK-3807,1 52353U 22045Y   23092.86201467  .00009626  00000-0  62185-3 0  9999,2 52353  53.2188 330.7434 0001476  75.0481 285.0674 15.08853202 53974,6917.84,95.437,540.726,538.684,0.0
52353.0,STARLINK-3807,PAYLOAD,2023-04-02 22:16:41,15.08858673,0.0001388,53.2181,330.4455,78.4106,281.7042,0.00091334,0.00014285,0.0,0 STARLINK-3807,1 52353U 22045Y   23092.92825429  .00014285  00000-0  91334-3 0  9991,2 52353  53.2181 330.4455 0001388  78.4106 281.7042 15.08858673 53980,6917.823,95.436,540.649,538.728,0.0
52353.0,STARLINK-3807,PAYLOAD,2023-04-02 23:52:04,15.08864975,0.0001406,53.2179,330.1481,77.4483,282.6666,0.0010504,0.0001648,0.0,0 STARLINK-3807,1 52353U 22045Y   23092.99449304  .00016480  00000-0  10504-2 0  9990,2 52353  53.2179 330.1481 0001406  77.4483 282.6666 15.08864975 53996,6917.804,95.436,540.642,538.696,0.0
52353.0,STARLINK-3807,PAYLOAD,2023-04-03 15:45:55,15.08859719,0.0001323,53.2173,327.175,76.2585,283.8555,0.00053094,8.177e-05,0.0,0 STARLINK-3807,1 52353U 22045Y   23093.65689019  .00008177  00000-0  53094-3 0  9999,2 52353  53.2173 327.1750 0001323  76.2585 283.8555 15.08859719 54095,6917.82,95.436,540.6,538.77,0.0
52353.0,STARLINK-3807,PAYLOAD,2023-04-03 20:32:04,15.08857042,9.42e-05,53.2171,326.2821,76.7998,283.3099,0.00046972,7.199e-05,0.0,0 STARLINK-3807,1 52353U 22045Y   23093.85560877  .00007199  00000-0  46972-3 0  9991,2 52353  53.2171 326.2821 0000942  76.7998 283.3099 15.08857042 54120,6917.828,95.436,540.345,539.042,0.0
52353.0,STARLINK-3807,PAYLOAD,2023-04-04 01:18:13,15.08861127,0.000108,53.2171,325.3894,78.2902,281.8211,0.00068817,0.00010688,0.0,0 STARLINK-3807,1 52353U 22045Y   23094.05432689  .00010688  00000-0  68817-3 0  9992,2 52353  53.2171 325.3894 0001080  78.2902 281.8211 15.08861127 54157,6917.816,95.436,540.428,538.934,0.0
52353.0,STARLINK-3807,PAYLOAD,2023-04-04 21:58:15,15.08845479,0.0001261,53.2172,321.5248,77.7536,282.3597,0.00076304,0.00011878,0.0,0 STARLINK-3807,1 52353U 22045Y   23094.91545147  .00011878  00000-0  76304-3 0  9993,2 52353  53.2172 321.5248 0001261  77.7536 282.3597 15.08845479 54286,6917.864,95.437,540.601,538.856,0.0
52353.0,STARLINK-3807,PAYLOAD,2023-04-05 01:09:01,15.0884892,0.000121,53.2171,320.9294,80.1636,279.9492,0.00067955,0.00010546,0.0,0 STARLINK-3807,1 52353U 22045Y   23095.04793033  .00010546  00000-0  67955-3 0  9990,2 52353  53.2171 320.9294 0001210  80.1636 279.9492 15.08848920 54305,6917.853,95.437,540.555,538.881,0.0
52353.0,STARLINK-3807,PAYLOAD,2023-04-05 20:13:39,15.08836651,0.0001118,53.2163,317.3592,101.7224,258.3893,0.00076746,0.00011946,0.0,0 STARLINK-3807,1 52353U 22045Y   23095.84281425  .00011946  00000-0  76746-3 0  9998,2 52353  53.2163 317.3592 0001118 101.7224 258.3893 15.08836651 54424,6917.891,95.438,540.529,538.982,0.0
52353.0,STARLINK-3807,PAYLOAD,2023-04-05 21:49:02,15.0884008,9.73e-05,53.2159,317.062,96.4817,263.6286,0.00093652,0.00014648,0.0,0 STARLINK-3807,1 52353U 22045Y   23095.90905421  .00014648  00000-0  93652-3 0  9991,2 52353  53.2159 317.0620 0000973  96.4817 263.6286 15.08840080 54431,6917.88,95.438,540.418,539.072,0.0
52353.0,STARLINK-3807,PAYLOAD,2023-04-06 13:42:53,15.08844092,0.0001091,53.2159,314.0901,103.0248,257.0866,0.00043851,6.699e-05,0.0,0 STARLINK-3807,1 52353U 22045Y   23096.57145449  .00006699  00000-0  43851-3 0  9994,2 52353  53.2159 314.0901 0001091 103.0248 257.0866 15.08844092 54534,6917.868,95.437,540.488,538.978,0.0
52353.0,STARLINK-3807,PAYLOAD,2023-04-06 15:18:16,15.08843496,0.0001064,53.2151,313.792,104.3395,255.7715,0.00036088,5.461e-05,0.0,0 STARLINK-3807,1 52353U 22045Y   23096.63769428  .00005461  00000-0  36088-3 0  9990,2 52353  53.2151 313.7920 0001064 104.3395 255.7715 15.08843496 54546,6917.87,95.437,540.471,538.999,0.0
52353.0,STARLINK-3807,PAYLOAD,2023-04-07 13:33:40,15.08850624,0.000193,53.2159,309.6291,115.1105,245.0088,0.00034759,5.25e-05,0.0,0 STARLINK-3807,1 52353U 22045Y   23097.56505084  .00005250  00000-0  34759-3 0  9998,2 52353  53.2159 309.6291 0001930 115.1105 245.0088 15.08850624 54681,6917.848,95.437,541.048,538.378,0.0
52353.0,STARLINK-3807,PAYLOAD,2023-04-07 15:09:03,15.08844278,0.0001361,53.2161,309.3319,111.166,248.9478,0.00018599,2.674e-05,0.0,0 STARLINK-3807,1 52353U 22045Y   23097.63129246  .00002674  00000-0  18599-3 0  9999,2 52353  53.2161 309.3319 0001361 111.1660 248.9478 15.08844278 54696,6917.867,95.437,540.674,538.791,0.0
